<?xml version="1.0" encoding="UTF-8"?>
<ndm xmlns:xsi="http://www.w3.org/2001/XMLSchema-instance" xsi:noNamespaceSchemaLocation="https://sanaregistry.org/r/ndmxml_unqualified/ndmxml-2.0.0-master-2.0.xsd">
<omm id="CCSDS_OMM_VERS" version="2.0">
<header><CREATION_DATE/><ORIGINATOR/></header><body><segment><metadata><OBJECT_NAME>ONEWEB-0384</OBJECT_NAME><OBJECT_ID>2021-090AH</OBJECT_ID><CENTER_NAME>EARTH</CENTER_NAME><REF_FRAME>TEME</REF_FRAME><TIME_SYSTEM>UTC</TIME_SYSTEM><MEAN_ELEMENT_THEORY>SGP4</MEAN_ELEMENT_THEORY></metadata><data><meanElements><EPOCH>2023-10-26T20:01:27.040800</EPOCH><MEAN_MOTION>13.20775052</MEAN_MOTION><ECCENTRICITY>.000227</ECCENTRICITY><INCLINATION>87.9151</INCLINATION><RA_OF_ASC_NODE>106.4255</RA_OF_ASC_NODE><ARG_OF_PERICENTER>96.3885</ARG_OF_PERICENTER><MEAN_ANOMALY>263.7507</MEAN_ANOMALY></meanElements><tleParameters><EPHEMERIS_TYPE>0</EPHEMERIS_TYPE><CLASSIFICATION_TYPE>U</CLASSIFICATION_TYPE><NORAD_CAT_ID>49310</NORAD_CAT_ID><ELEMENT_SET_NO>999</ELEMENT_SET_NO><REV_AT_EPOCH>10253</REV_AT_EPOCH><BSTAR>-.26941E-2</BSTAR><MEAN_MOTION_DOT>-.1082E-4</MEAN_MOTION_DOT><MEAN_MOTION_DDOT>0</MEAN_MOTION_DDOT></tleParameters></data></segment></body></omm>
<omm id="CCSDS_OMM_VERS" version="2.0">
<header><CREATION_DATE/><ORIGINATOR/></header><body><segment><metadata><OBJECT_NAME>ONEWEB-0385</OBJECT_NAME><OBJECT_ID>2021-090AJ</OBJECT_ID><CENTER_NAME>EARTH</CENTER_NAME><REF_FRAME>TEME</REF_FRAME><TIME_SYSTEM>UTC</TIME_SYSTEM><MEAN_ELEMENT_THEORY>SGP4</MEAN_ELEMENT_THEORY></metadata><data><meanElements><EPOCH>2023-10-26T19:55:24.633408</EPOCH><MEAN_MOTION>13.20767078</MEAN_MOTION><ECCENTRICITY>.0001976</ECCENTRICITY><INCLINATION>87.9152</INCLINATION><RA_OF_ASC_NODE>106.4284</RA_OF_ASC_NODE><ARG_OF_PERICENTER>98.2377</ARG_OF_PERICENTER><MEAN_ANOMALY>261.8980</MEAN_ANOMALY></meanElements><tleParameters><EPHEMERIS_TYPE>0</EPHEMERIS_TYPE><CLASSIFICATION_TYPE>U</CLASSIFICATION_TYPE><NORAD_CAT_ID>49311</NORAD_CAT_ID><ELEMENT_SET_NO>999</ELEMENT_SET_NO><REV_AT_EPOCH>10250</REV_AT_EPOCH><BSTAR>.95181E-4</BSTAR><MEAN_MOTION_DOT>.52E-6</MEAN_MOTION_DOT><MEAN_MOTION_DDOT>0</MEAN_MOTION_DDOT></tleParameters></data></segment></body></omm>
<omm id="CCSDS_OMM_VERS" version="2.0">
<header><CREATION_DATE/><ORIGINATOR/></header><body><segment><metadata><OBJECT_NAME>ONEWEB-0386</OBJECT_NAME><OBJECT_ID>2021-090AK</OBJECT_ID><CENTER_NAME>EARTH</CENTER_NAME><REF_FRAME>TEME</REF_FRAME><TIME_SYSTEM>UTC</TIME_SYSTEM><MEAN_ELEMENT_THEORY>SGP4</MEAN_ELEMENT_THEORY></metadata><data><meanElements><EPOCH>2023-10-26T20:19:37.726752</EPOCH><MEAN_MOTION>13.20774568</MEAN_MOTION><ECCENTRICITY>.0001967</ECCENTRICITY><INCLINATION>87.9146</INCLINATION><RA_OF_ASC_NODE>106.4353</RA_OF_ASC_NODE><ARG_OF_PERICENTER>93.4279</ARG_OF_PERICENTER><MEAN_ANOMALY>266.7079</MEAN_ANOMALY></meanElements><tleParameters><EPHEMERIS_TYPE>0</EPHEMERIS_TYPE><CLASSIFICATION_TYPE>U</CLASSIFICATION_TYPE><NORAD_CAT_ID>49312</NORAD_CAT_ID><ELEMENT_SET_NO>999</ELEMENT_SET_NO><REV_AT_EPOCH>10252</REV_AT_EPOCH><BSTAR>.36188E-3</BSTAR><MEAN_MOTION_DOT>.16E-5</MEAN_MOTION_DOT><MEAN_MOTION_DDOT>0</MEAN_MOTION_DDOT></tleParameters></data></segment></body></omm>
<omm id="CCSDS_OMM_VERS" version="2.0">
<header><CREATION_DATE/><ORIGINATOR/></header><body><segment><metadata><OBJECT_NAME>ONEWEB-0387</OBJECT_NAME><OBJECT_ID>2021-090AL</OBJECT_ID><CENTER_NAME>EARTH</CENTER_NAME><REF_FRAME>TEME</REF_FRAME><TIME_SYSTEM>UTC</TIME_SYSTEM><MEAN_ELEMENT_THEORY>SGP4</MEAN_ELEMENT_THEORY></metadata><data><meanElements><EPOCH>2023-10-26T19:58:24.954528</EPOCH><MEAN_MOTION>13.20770925</MEAN_MOTION><ECCENTRICITY>.0002435</ECCENTRICITY><INCLINATION>87.9150</INCLINATION><RA_OF_ASC_NODE>106.4855</RA_OF_ASC_NODE><ARG_OF_PERICENTER>114.1873</ARG_OF_PERICENTER><MEAN_ANOMALY>245.9515</MEAN_ANOMALY></meanElements><tleParameters><EPHEMERIS_TYPE>0</EPHEMERIS_TYPE><CLASSIFICATION_TYPE>U</CLASSIFICATION_TYPE><NORAD_CAT_ID>49313</NORAD_CAT_ID><ELEMENT_SET_NO>999</ELEMENT_SET_NO><REV_AT_EPOCH>10252</REV_AT_EPOCH><BSTAR>-.14781E-2</BSTAR><MEAN_MOTION_DOT>-.588E-5</MEAN_MOTION_DOT><MEAN_MOTION_DDOT>0</MEAN_MOTION_DDOT></tleParameters></data></segment></body></omm>
<omm id="CCSDS_OMM_VERS" version="2.0">
<header><CREATION_DATE/><ORIGINATOR/></header><body><segment><metadata><OBJECT_NAME>ONEWEB-0388</OBJECT_NAME><OBJECT_ID>2021-090AM</OBJECT_ID><CENTER_NAME>EARTH</CENTER_NAME><REF_FRAME>TEME</REF_FRAME><TIME_SYSTEM>UTC</TIME_SYSTEM><MEAN_ELEMENT_THEORY>SGP4</MEAN_ELEMENT_THEORY></metadata><data><meanElements><EPOCH>2023-10-26T22:37:06.480768</EPOCH><MEAN_MOTION>13.19619441</MEAN_MOTION><ECCENTRICITY>.0002855</ECCENTRICITY><INCLINATION>87.9182</INCLINATION><RA_OF_ASC_NODE>136.8991</RA_OF_ASC_NODE><ARG_OF_PERICENTER>79.7323</ARG_OF_PERICENTER><MEAN_ANOMALY>280.4131</MEAN_ANOMALY></meanElements><tleParameters><EPHEMERIS_TYPE>0</EPHEMERIS_TYPE><CLASSIFICATION_TYPE>U</CLASSIFICATION_TYPE><NORAD_CAT_ID>49314</NORAD_CAT_ID><ELEMENT_SET_NO>999</ELEMENT_SET_NO><REV_AT_EPOCH>9923</REV_AT_EPOCH><BSTAR>.53566E-1</BSTAR><MEAN_MOTION_DOT>.21475E-3</MEAN_MOTION_DOT><MEAN_MOTION_DDOT>0</MEAN_MOTION_DDOT></tleParameters></data></segment></body></omm>
<omm id="CCSDS_OMM_VERS" version="2.0">
<header><CREATION_DATE/><ORIGINATOR/></header><body><segment><metadata><OBJECT_NAME>ONEWEB-0389</OBJECT_NAME><OBJECT_ID>2021-132A</OBJECT_ID><CENTER_NAME>EARTH</CENTER_NAME><REF_FRAME>TEME</REF_FRAME><TIME_SYSTEM>UTC</TIME_SYSTEM><MEAN_ELEMENT_THEORY>SGP4</MEAN_ELEMENT_THEORY></metadata><data><meanElements><EPOCH>2023-10-26T17:35:07.755360</EPOCH><MEAN_MOTION>13.17650635</MEAN_MOTION><ECCENTRICITY>.0001683</ECCENTRICITY><INCLINATION>87.9263</INCLINATION><RA_OF_ASC_NODE>197.5411</RA_OF_ASC_NODE><ARG_OF_PERICENTER>91.7679</ARG_OF_PERICENTER><MEAN_ANOMALY>268.3646</MEAN_ANOMALY></meanElements><tleParameters><EPHEMERIS_TYPE>0</EPHEMERIS_TYPE><CLASSIFICATION_TYPE>U</CLASSIFICATION_TYPE><NORAD_CAT_ID>50469</NORAD_CAT_ID><ELEMENT_SET_NO>999</ELEMENT_SET_NO><REV_AT_EPOCH>9107</REV_AT_EPOCH><BSTAR>.10615E-3</BSTAR><MEAN_MOTION_DOT>.54E-6</MEAN_MOTION_DOT><MEAN_MOTION_DDOT>0</MEAN_MOTION_DDOT></tleParameters></data></segment></body></omm>
<omm id="CCSDS_OMM_VERS" version="2.0">
<header><CREATION_DATE/><ORIGINATOR/></header><body><segment><metadata><OBJECT_NAME>ONEWEB-0390</OBJECT_NAME><OBJECT_ID>2021-132B</OBJECT_ID><CENTER_NAME>EARTH</CENTER_NAME><REF_FRAME>TEME</REF_FRAME><TIME_SYSTEM>UTC</TIME_SYSTEM><MEAN_ELEMENT_THEORY>SGP4</MEAN_ELEMENT_THEORY></metadata><data><meanElements><EPOCH>2023-10-26T17:38:10.475808</EPOCH><MEAN_MOTION>13.17648751</MEAN_MOTION><ECCENTRICITY>.000134</ECCENTRICITY><INCLINATION>87.9266</INCLINATION><RA_OF_ASC_NODE>197.5478</RA_OF_ASC_NODE><ARG_OF_PERICENTER>79.7438</ARG_OF_PERICENTER><MEAN_ANOMALY>280.3844</MEAN_ANOMALY></meanElements><tleParameters><EPHEMERIS_TYPE>0</EPHEMERIS_TYPE><CLASSIFICATION_TYPE>U</CLASSIFICATION_TYPE><NORAD_CAT_ID>50470</NORAD_CAT_ID><ELEMENT_SET_NO>999</ELEMENT_SET_NO><REV_AT_EPOCH>9107</REV_AT_EPOCH><BSTAR>.12877E-3</BSTAR><MEAN_MOTION_DOT>.63E-6</MEAN_MOTION_DOT><MEAN_MOTION_DDOT>0</MEAN_MOTION_DDOT></tleParameters></data></segment></body></omm>
<omm id="CCSDS_OMM_VERS" version="2.0">
<header><CREATION_DATE/><ORIGINATOR/></header><body><segment><metadata><OBJECT_NAME>ONEWEB-0391</OBJECT_NAME><OBJECT_ID>2021-132C</OBJECT_ID><CENTER_NAME>EARTH</CENTER_NAME><REF_FRAME>TEME</REF_FRAME><TIME_SYSTEM>UTC</TIME_SYSTEM><MEAN_ELEMENT_THEORY>SGP4</MEAN_ELEMENT_THEORY></metadata><data><meanElements><EPOCH>2023-10-26T17:41:12.898176</EPOCH><MEAN_MOTION>13.17648922</MEAN_MOTION><ECCENTRICITY>.0001783</ECCENTRICITY><INCLINATION>87.9267</INCLINATION><RA_OF_ASC_NODE>197.5181</RA_OF_ASC_NODE><ARG_OF_PERICENTER>83.5387</ARG_OF_PERICENTER><MEAN_ANOMALY>276.5947</MEAN_ANOMALY></meanElements><tleParameters><EPHEMERIS_TYPE>0</EPHEMERIS_TYPE><CLASSIFICATION_TYPE>U</CLASSIFICATION_TYPE><NORAD_CAT_ID>50471</NORAD_CAT_ID><ELEMENT_SET_NO>999</ELEMENT_SET_NO><REV_AT_EPOCH>9107</REV_AT_EPOCH><BSTAR>.48774E-4</BSTAR><MEAN_MOTION_DOT>.32E-6</MEAN_MOTION_DOT><MEAN_MOTION_DDOT>0</MEAN_MOTION_DDOT></tleParameters></data></segment></body></omm>
<omm id="CCSDS_OMM_VERS" version="2.0">
<header><CREATION_DATE/><ORIGINATOR/></header><body><segment><metadata><OBJECT_NAME>ONEWEB-0392</OBJECT_NAME><OBJECT_ID>2021-132D</OBJECT_ID><CENTER_NAME>EARTH</CENTER_NAME><REF_FRAME>TEME</REF_FRAME><TIME_SYSTEM>UTC</TIME_SYSTEM><MEAN_ELEMENT_THEORY>SGP4</MEAN_ELEMENT_THEORY></metadata><data><meanElements><EPOCH>2023-10-26T18:23:44.457792</EPOCH><MEAN_MOTION>13.17647033</MEAN_MOTION><ECCENTRICITY>.0001656</ECCENTRICITY><INCLINATION>87.9248</INCLINATION><RA_OF_ASC_NODE>197.5468</RA_OF_ASC_NODE><ARG_OF_PERICENTER>86.5132</ARG_OF_PERICENTER><MEAN_ANOMALY>273.6188</MEAN_ANOMALY></meanElements><tleParameters><EPHEMERIS_TYPE>0</EPHEMERIS_TYPE><CLASSIFICATION_TYPE>U</CLASSIFICATION_TYPE><NORAD_CAT_ID>50472</NORAD_CAT_ID><ELEMENT_SET_NO>999</ELEMENT_SET_NO><REV_AT_EPOCH>9111</REV_AT_EPOCH><BSTAR>-.29603E-4</BSTAR><MEAN_MOTION_DOT>.1E-7</MEAN_MOTION_DOT><MEAN_MOTION_DDOT>0</MEAN_MOTION_DDOT></tleParameters></data></segment></body></omm>

</ndm>
